SENTINEL-6              
1 46984U 20086A   24217.95104381 -.00000034  00000+0  11790-3 0  9992
2 46984  66.0414 109.9899 0007814 269.9382  90.0738 12.80930216173075
